$$SOE
2459580.500000000, A.D. 2022-Jan-01 00:00:00.0000, -4.503906507970177E+08, -2.799617988149729E+08, -1.243620894753655E+08,
2459587.500000000, A.D. 2022-Jan-08 00:00:00.0000, -4.447020227646983E+08, -2.864911395707541E+08, -1.257077306624305E+08,
2459594.500000000, A.D. 2022-Jan-15 00:00:00.0000, -4.388791426235140E+08, -2.929339473628662E+08, -1.270154040603475E+08,
2459601.500000000, A.D. 2022-Jan-22 00:00:00.0000, -4.329230342617864E+08, -2.992877899347926E+08, -1.282845036448506E+08,
2459608.500000000, A.D. 2022-Jan-29 00:00:00.0000, -4.268347579996445E+08, -3.055502223263353E+08, -1.295144238756655E+08,
2459615.500000000, A.D. 2022-Feb-05 00:00:00.0000, -4.206154137850416E+08, -3.117187875095159E+08, -1.307045596327735E+08,
2459622.500000000, A.D. 2022-Feb-12 00:00:00.0000, -4.142661422497144E+08, -3.177910181182112E+08, -1.318543064483893E+08,
2459629.500000000, A.D. 2022-Feb-19 00:00:00.0000, -4.077881249508213E+08, -3.237644369038115E+08, -1.329630607202540E+08,
2459636.500000000, A.D. 2022-Feb-26 00:00:00.0000, -4.011825851099278E+08, -3.296365566411037E+08, -1.340302198455914E+08,
2459643.500000000, A.D. 2022-Mar-05 00:00:00.0000, -3.944507886902679E+08, -3.354048801028237E+08, -1.350551823414664E+08,
2459650.500000000, A.D. 2022-Mar-12 00:00:00.0000, -3.875940455908649E+08, -3.410669001702733E+08, -1.360373479781463E+08,
2459657.500000000, A.D. 2022-Mar-19 00:00:00.0000, -3.806137108869151E+08, -3.466201000534745E+08, -1.369761179305445E+08,
2459664.500000000, A.D. 2022-Mar-26 00:00:00.0000, -3.735111860942364E+08, -3.520619536281607E+08, -1.378708949509433E+08,
2459671.500000000, A.D. 2022-Apr-02 00:00:00.0000, -3.662879203898029E+08, -3.573899259469619E+08, -1.387210835743077E+08,
2459678.500000000, A.D. 2022-Apr-09 00:00:00.0000, -3.589454115159582E+08, -3.626014739219517E+08, -1.395260903813778E+08,
2459685.500000000, A.D. 2022-Apr-16 00:00:00.0000, -3.514852060109879E+08, -3.676940465268978E+08, -1.402853242997150E+08,
2459692.500000000, A.D. 2022-Apr-23 00:00:00.0000, -3.439089000349051E+08, -3.726650834374253E+08, -1.409981967386805E+08,
2459699.500000000, A.D. 2022-Apr-30 00:00:00.0000, -3.362181426605373E+08, -3.775120143569727E+08, -1.416641215713107E+08,
2459706.500000000, A.D. 2022-May-07 00:00:00.0000, -3.284146385675520E+08, -3.822322610051944E+08, -1.422825154065881E+08,
2459713.500000000, A.D. 2022-May-14 00:00:00.0000, -3.205001487507966E+08, -3.868232387334486E+08, -1.428527980324252E+08,
2459720.500000000, A.D. 2022-May-21 00:00:00.0000, -3.124764912741178E+08, -3.912823570108244E+08, -1.433743927816417E+08,
2459727.500000000, A.D. 2022-May-28 00:00:00.0000, -3.043455425477015E+08, -3.956070197417399E+08, -1.438467268556862E+08,
2459734.500000000, A.D. 2022-Jun-04 00:00:00.0000, -2.961092388506542E+08, -3.997946257307490E+08, -1.442692316575550E+08,
2459741.500000000, A.D. 2022-Jun-11 00:00:00.0000, -2.877695779529635E+08, -4.038425692957405E+08, -1.446413431477777E+08,
2459748.500000000, A.D. 2022-Jun-18 00:00:00.0000, -2.793286207971757E+08, -4.077482410199160E+08, -1.449625022269816E+08,
2459755.500000000, A.D. 2022-Jun-25 00:00:00.0000, -2.707884932095330E+08, -4.115090286794170E+08, -1.452321551515705E+08,
2459762.500000000, A.D. 2022-Jul-02 00:00:00.0000, -2.621513875056660E+08, -4.151223184159788E+08, -1.454497540012585E+08,
2459769.500000000, A.D. 2022-Jul-09 00:00:00.0000, -2.534195635995271E+08, -4.185854959812734E+08, -1.456147572207697E+08,
2459776.500000000, A.D. 2022-Jul-16 00:00:00.0000, -2.445953496694278E+08, -4.218959469737167E+08, -1.457266301429713E+08,
2459783.500000000, A.D. 2022-Jul-23 00:00:00.0000, -2.356811445776890E+08, -4.250510559934813E+08, -1.457848452859933E+08,
2459790.500000000, A.D. 2022-Jul-30 00:00:00.0000, -2.266794219572500E+08, -4.280482080735996E+08, -1.457888827067719E+08,
2459797.500000000, A.D. 2022-Aug-06 00:00:00.0000, -2.175927323641203E+08, -4.308847917439857E+08, -1.457382306892711E+08,
2459804.500000000, A.D. 2022-Aug-13 00:00:00.0000, -2.084237043168397E+08, -4.335582009788430E+08, -1.456323864678847E+08,
2459811.500000000, A.D. 2022-Aug-20 00:00:00.0000, -1.991750457897750E+08, -4.360658365352207E+08, -1.454708568839347E+08,
2459818.500000000, A.D. 2022-Aug-27 00:00:00.0000, -1.898495460889156E+08, -4.384051074135785E+08, -1.452531590414611E+08,
2459825.500000000, A.D. 2022-Sep-03 00:00:00.0000, -1.804500778584577E+08, -4.405734325554043E+08, -1.449788209947150E+08,
2459832.500000000, A.D. 2022-Sep-10 00:00:00.0000, -1.709795991238191E+08, -4.425682427588505E+08, -1.446473824745037E+08,
2459839.500000000, A.D. 2022-Sep-17 00:00:00.0000, -1.614411553371488E+08, -4.443869828193793E+08, -1.442583956573318E+08,
2459846.500000000, A.D. 2022-Sep-24 00:00:00.0000, -1.518378813601941E+08, -4.460271139517446E+08, -1.438114259883035E+08,
2459853.500000000, A.D. 2022-Oct-01 00:00:00.0000, -1.421730031395664E+08, -4.474861165210599E+08, -1.433060530829247E+08,
2459860.500000000, A.D. 2022-Oct-08 00:00:00.0000, -1.324498386617066E+08, -4.487614925662769E+08, -1.427418717037595E+08,
2459867.500000000, A.D. 2022-Oct-15 00:00:00.0000, -1.226717991134594E+08, -4.498507669219890E+08, -1.421184926295885E+08,
2459874.500000000, A.D. 2022-Oct-22 00:00:00.0000, -1.128423924229743E+08, -4.507514886271214E+08, -1.414355433554463E+08,
2459881.500000000, A.D. 2022-Oct-29 00:00:00.0000, -1.029652266752631E+08, -4.514612352191729E+08, -1.406926690657470E+08,
2459888.500000000, A.D. 2022-Nov-05 00:00:00.0000, -9.304401129532613E+07, -4.519776171789790E+08, -1.398895338506523E+08,
2459895.500000000, A.D. 2022-Nov-12 00:00:00.0000, -8.308255795605083E+07, -4.522982812644104E+08, -1.390258218831778E+08,
2459902.500000000, A.D. 2022-Nov-19 00:00:00.0000, -7.308478192208700E+07, -4.524209136917109E+08, -1.381012385696010E+08,
2459909.500000000, A.D. 2022-Nov-26 00:00:00.0000, -6.305470355841238E+07, -4.523432435655000E+08, -1.371155117296227E+08,
2459916.500000000, A.D. 2022-Dec-03 00:00:00.0000, -5.299644982719496E+07, -4.520630465719205E+08, -1.360683928218303E+08,
2459923.500000000, A.D. 2022-Dec-10 00:00:00.0000, -4.291425571541332E+07, -4.515781489189811E+08, -1.349596582163573E+08,
2459930.500000000, A.D. 2022-Dec-17 00:00:00.0000, -3.281246555513545E+07, -4.508864315523704E+08, -1.337891105187261E+08,
2459937.500000000, A.D. 2022-Dec-24 00:00:00.0000, -2.269553411316893E+07, -4.499858347166769E+08, -1.325565799605821E+08,
2459944.500000000, A.D. 2022-Dec-31 00:00:00.0000, -1.256802707869292E+07, -4.488743627588781E+08, -1.312619258818641E+08,
2459951.500000000, A.D. 2023-Jan-07 00:00:00.0000, -2.434620812602830E+06, -4.475500882154646E+08, -1.299050382371747E+08,
2459958.500000000, A.D. 2023-Jan-14 00:00:00.0000, 7.699896688247624E+06, -4.460111546884949E+08, -1.284858389045646E+08,
2459965.500000000, A.D. 2023-Jan-21 00:00:00.0000, 1.783062298233803E+07, -4.442557816833428E+08, -1.270042829951599E+08,
2459972.500000000, A.D. 2023-Jan-28 00:00:00.0000, 2.795254021512484E+07, -4.422822716033781E+08, -1.254603605142611E+08,
2459979.500000000, A.D. 2023-Feb-04 00:00:00.0000, 3.806051579988617E+07, -4.400890158736781E+08, -1.238540981056020E+08,
2459986.500000000, A.D. 2023-Feb-11 00:00:00.0000, 4.814930297033682E+07, -4.376745003858896E+08, -1.221855607276168E+08,
2459993.500000000, A.D. 2023-Feb-18 00:00:00.0000, 5.821354116035690E+07, -4.350373110843437E+08, -1.204548533202994E+08,
2460000.500000000, A.D. 2023-Feb-25 00:00:00.0000, 6.824775649297835E+07, -4.321761398507580E+08, -1.186621224966123E+08,
2460007.500000000, A.D. 2023-Mar-04 00:00:00.0000, 7.824636250082500E+07, -4.290897906627250E+08, -1.168075582623917E+08,
2460014.500000000, A.D. 2023-Mar-11 00:00:00.0000, 8.820366112742282E+07, -4.257771860178221E+08, -1.148913957629167E+08,
2460021.500000000, A.D. 2023-Mar-18 00:00:00.0000, 9.811384407811587E+07, -4.222373736638026E+08, -1.129139170597727E+08,
2460028.500000000, A.D. 2023-Mar-25 00:00:00.0000, 1.079709947460698E+08, -4.184695336720492E+08, -1.108754529555714E+08,
2460035.500000000, A.D. 2023-Apr-01 00:00:00.0000, 1.177690911599501E+08, -4.144729854497398E+08, -1.087763848679861E+08,
2460042.500000000, A.D. 2023-Apr-08 00:00:00.0000, 1.275020093594396E+08, -4.102471934526991E+08, -1.066171465904915E+08,
2460049.500000000, A.D. 2023-Apr-15 00:00:00.0000, 1.371635248826596E+08, -4.057917726889173E+08, -1.043982258087104E+08,
2460056.500000000, A.D. 2023-Apr-22 00:00:00.0000, 1.467473141962140E+08, -4.011064970452324E+08, -1.021201657798319E+08,
2460063.500000000, A.D. 2023-Apr-29 00:00:00.0000, 1.562469588250523E+08, -3.961913081637188E+08, -9.978356723400685E+07,
2460070.500000000, A.D. 2023-May-06 00:00:00.0000, 1.656559504432690E+08, -3.910463230649737E+08, -9.738909018265525E+07,
2460077.500000000, A.D. 2023-May-13 00:00:00.0000, 1.749676959691263E+08, -3.856718413875333E+08, -9.493745560831538E+07,
2460084.500000000, A.D. 2023-May-20 00:00:00.0000, 1.841755229174643E+08, -3.800683527074086E+08, -9.242944708817354E+07,
2460091.500000000, A.D. 2023-May-27 00:00:00.0000, 1.932726852207195E+08, -3.742365439375392E+08, -8.986591236138383E+07,
2460098.500000000, A.D. 2023-Jun-03 00:00:00.0000, 2.022523695921774E+08, -3.681773067488893E+08, -8.724776483266871E+07,
2460105.500000000, A.D. 2023-Jun-10 00:00:00.0000, 2.111077024694013E+08, -3.618917449916568E+08, -8.457598500418848E+07,
2460112.500000000, A.D. 2023-Jun-17 00:00:00.0000, 2.198317576394842E+08, -3.553811821385530E+08, -8.185162183698854E+07,
2460119.500000000, A.D. 2023-Jun-24 00:00:00.0000, 2.284175648772426E+08, -3.486471686546388E+08, -7.907579405495347E+07,
2460126.500000000, A.D. 2023-Jul-01 00:00:00.0000, 2.368581198581411E+08, -3.416914884249737E+08, -7.624969133481973E+07,
2460133.500000000, A.D. 2023-Jul-08 00:00:00.0000, 2.451463936764617E+08, -3.345161633759065E+08, -7.337457514894944E+07,
2460140.500000000, A.D. 2023-Jul-15 00:00:00.0000, 2.532753406916016E+08, -3.271234590740915E+08, -7.045177936146499E+07,
$$EOE